INTELSAT 36 (IS-36) [PM]
1 41747C 16053A   23102.31356482 -.00003605  00000-0  00000-0 0  1029
2 41747   0.0370  37.7087 0000837  89.1160 254.8092  1.00271489    13
INTELSAT 33E            
1 41748C 16053B   23096.00000000  .00000152  00000-0  00000-0 0   965
2 41748   0.0188 265.1406 0001752 139.2896 209.5949  1.00272428    15
INTELSAT 33E            
1 41748C 16053B   23100.00000000 -.00004058  00000-0  00000-0 0  1007
2 41748   0.0044 275.7079 0001968 108.9289 233.3258  1.00270425    10
INTELSAT 33E        [PM]
1 41748C 16053B   23103.25344907  .00000138  00000-0  00000-0 0  1031
2 41748   0.0365  33.0773 0002071  85.1874 234.1356  1.00270032    16
INTELSAT 32E            
1 41945C 17007B   23096.00000000 -.00003433  00000-0  00000-0 0   960
2 41945   0.0007 169.1906 0000080 241.1176 100.5313  1.00270112    12
INTELSAT 32E            
1 41945C 17007B   23100.00000000 -.00003547  00000-0  00000-0 0  1008
2 41945   0.0000 264.1241 0000043 156.3252  94.3541  1.00270720    12
INTELSAT 32E        [PM]
1 41945C 17007B   23102.02607639 -.00000166  00000-0  00000-0 0  1029
2 41945   0.0046 166.8271 0000336 237.7523 121.5873  1.00273619    14
INTELSAT 35E            
1 42818C 17041A   23096.00000000 -.00000145  00000-0  00000-0 0   965
2 42818   0.0128 239.9476 0002254 137.8600 141.7166  1.00272524    14
INTELSAT 35E            
1 42818C 17041A   23100.00000000 -.00000148  00000-0  00000-0 0  1000
2 42818   0.0164 260.7801 0002285 125.4515 137.2391  1.00271958    10
INTELSAT 35E        [PM]
1 42818C 17041A   23102.65554398 -.00000156  00000-0  00000-0 0  1028
2 42818   0.0075 235.5561 0002207 154.3788  12.1446  1.00272457    18
INTELSAT 37E            
1 42950C 17059A   23096.00000000 -.00000132  00000-0  00000-0 0   967
2 42950   0.0026 223.4009 0002557 161.5430 151.0813  1.00272467    18
INTELSAT 37E        [PM]
1 42950C 17059A   23099.30833333 -.00000051  00000-0  00000-0 0   999
2 42950   0.0089 257.5560 0002483 135.8041 256.9313  1.00272452    11
INTELSAT 37E            
1 42950C 17059A   23100.00000000 -.00000060  00000-0  00000-0 0  1009
2 42950   0.0057 254.4589 0002500 140.4305 145.0844  1.00272287    11
AZERSPACE 2 (IS-38)     
1 43632C 18074A   23096.00000000 -.00003923  00000-0  00000-0 0   964
2 43632   0.0000 181.6809 0001597 208.4119 209.0444  1.00272153    15
AZERSPACE 2 (IS-38)     
1 43632C 18074A   23100.00000000 -.00004136  00000-0  00000-0 0  1003
2 43632   0.0375  46.5438 0001559 345.8263 210.7142  1.00270987    18
HORIZONS-3E             
1 43633C 18074B   23096.00000000 -.00003461  00000-0  00000-0 0   962
2 43633   0.0403  67.6798 0001004 242.2858  53.0587  1.00268942    18
HORIZONS-3E             
1 43633C 18074B   23100.00000000  .00000061  00000-0  00000-0 0  1006
2 43633   0.0410  61.5677 0000878 260.2992  45.0974  1.00269024    15
INTELSAT 39 (IS-39)     
1 44476C 19049B   23095.96258102  .00000236  00000-0  00000-0 0   958
2 44476   0.0059 236.1042 0001312 280.6794  85.6803  1.00271334    14
INTELSAT 39 (IS-39)     
1 44476C 19049B   23099.95192130  .00000123  00000-0  00000-0 0   998
2 44476   0.0051 258.2555 0001404 259.0387  85.2714  1.00271325    17
INTELSAT 39 (IS-39) [PM]
1 44476C 19049B   23103.59564815  .00000124  00000-0  00000-0 0  1034
2 44476   0.0414  48.4468 0001457 328.5830 100.8653  1.00270920    11
GALAXY 30 (G-30)        
1 46114C 20056C   23096.00000000 -.00003579  00000-0  00000-0 0   962
2 46114   0.0033 161.2260 0002069 232.2386  35.5736  1.00273358    14
GALAXY 30 (G-30)        
1 46114C 20056C   23100.00000000 -.00004352  00000-0  00000-0 0  1004
2 46114   0.0362  46.6078 0002209 353.7520  32.6295  1.00270868    18
GALAXY 30 (G-30)    [PM]
1 46114C 20056C   23102.06666667  .00000120  00000-0  00000-0 0  1029
2 46114   0.0057 250.6948 0002272 155.2939  53.0315  1.00269989    13
GALAXY 33 (G-33)        
1 54026C 22128A   23096.00000000 -.00004581  00000-0  00000-0 0   969
2 54026   0.0472  25.4920 0001987 348.6221  46.9052  1.00270179    19
GALAXY 33 (G-33)        
1 54026C 22128A   23100.00000000  .00000150  00000-0  00000-0 0  1008
2 54026   0.0087 278.7938 0001985 107.4831  38.6883  1.00272748    13
GALAXY 33 (G-33)    [PM]
1 54026C 22128A   23101.06556713 -.00003524  00000-0  00000-0 0  1012
2 54026   0.0027 269.4320 0002096 123.3387  56.8629  1.00270154    15
GALAXY 34 (G-34)        
1 54027C 22128B   23096.00000000  .00000091  00000-0  00000-0 0   961
2 54027   0.0000 220.5983 0002893 207.3997 357.0377  1.00270644    15
GALAXY 34 (G-34)        
1 54027C 22128B   23100.00000000  .00000147  00000-0  00000-0 0  1005
2 54027   0.0055 260.9523 0003162 171.7622 356.2598  1.00271952    11
GALAXY 34 (G-34)    [PM]
1 54027C 22128B   23102.70277778  .00000155  00000-0  00000-0 0  1023
2 54027   0.0000 195.0501 0003265 237.8002 251.7894  1.00269917    11
GALAXY 31 (G-31)        
1 54243C 22153A   23096.00000000  .00000106  00000-0  00000-0 0   966
2 54243   0.0118 229.7260 0002806  75.1363 128.1636  1.00271280    18
GALAXY 31 (G-31)        
1 54243C 22153A   23100.00000000  .00000103  00000-0  00000-0 0  1005
2 54243   0.0150 254.4839 0002504  52.6421 129.8467  1.00272366    17
GALAXY 31 (G-31)    [PM]
1 54243C 22153A   23102.52771991  .00000098  00000-0  00000-0 0  1023
2 54243   0.0078 229.0887 0002489  77.7019 322.6632  1.00270128    11
GALAXY 32 (G-32)        
1 54244C 22153B   23096.00000000 -.00000106  00000-0  00000-0 0   968
2 54244   0.0241  24.7004 0003039 346.1986  92.1304  1.00272131    14
GALAXY 32 (G-32)        
1 54244C 22153B   23100.00000000 -.00000085  00000-0  00000-0 0  1006
2 54244   0.0458  37.3264 0003032 339.8029  89.8447  1.00271582    12
GALAXY 32 (G-32)    [PM]
1 54244C 22153B   23102.14387732 -.00001947  00000-0  00000-0 0  1023
2 54244   0.0000  12.0821 0003060   6.3183 142.4805  1.00271916    17
GALAXY 35 (G-35)        
1 54741C 22170A   23096.00000000 -.00003389  00000-0  00000-0 0   965
2 54741   0.0000 259.1274 0003197 163.8363  36.2171  1.00275158    13
GALAXY 35 (G-35)        
1 54741C 22170A   23100.00000000 -.00000069  00000-0  00000-0 0  1009
2 54741   0.0185 319.0812 0003207 107.7029  36.3385  1.00271200    11
GALAXY 35 (G-35)    [PM]
1 54741C 22170A   23102.98173611 -.00003447  00000-0  00000-0 0  1022
2 54741   0.0008 149.6807 0003318 278.0605  31.7411  1.00271540    17
GALAXY 36 (G-36)        
1 54742C 22170B   23096.00000000 -.00000135  00000-0  00000-0 0   962
2 54742   0.0001 211.9042 0002926 213.3055  39.8273  1.00272002    19
GALAXY 36 (G-36)        
1 54742C 22170B   23100.00000000 -.00000112  00000-0  00000-0 0  1009
2 54742   0.0055 253.1997 0003164 176.4163  39.3639  1.00271340    14
GALAXY 36 (G-36)    [PM]
1 54742C 22170B   23103.45174769 -.00000095  00000-0  00000-0 0  1038
2 54742   0.0138 250.7198 0003337 182.3778 201.9081  1.00270123    18
